{
  "type": "FeatureCollection",
  "name": "Erken study geometries",
  "features": [
    {
      "type": "Feature",
      "id": "erken-search",
      "properties": {
        "name": "Erken search geometry",
        "role": "search",
        "description": "Compact lake-covering polygon for product discovery; WGS84 longitude/latitude.",
        "source": "OpenStreetMap relation 2672093 (© OpenStreetMap contributors, ODbL)",
        "retrieved": "2026-08-20",
        "simplification_m": 250
      },
      "geometry": {
        "type": "Polygon",
        "coordinates": [[
          [18.469922, 59.844651],
          [18.493810, 59.843758],
          [18.496760, 59.838174],
          [18.503755, 59.841646],
          [18.514392, 59.834269],
          [18.520226, 59.838510],
          [18.531049, 59.834654],
          [18.533148, 59.837961],
          [18.548826, 59.834273],
          [18.565425, 59.836503],
          [18.561970, 59.830998],
          [18.568085, 59.832799],
          [18.570993, 59.829001],
          [18.580676, 59.832797],
          [18.580896, 59.827092],
          [18.590900, 59.831508],
          [18.597010, 59.827949],
          [18.619830, 59.829812],
          [18.638601, 59.840029],
          [18.644984, 59.840301],
          [18.648310, 59.834781],
          [18.659227, 59.839420],
          [18.647841, 59.840777],
          [18.650837, 59.849140],
          [18.636047, 59.852960],
          [18.646610, 59.854353],
          [18.632593, 59.860549],
          [18.620871, 59.859280],
          [18.619396, 59.853973],
          [18.597869, 59.857669],
          [18.590010, 59.855546],
          [18.578895, 59.859407],
          [18.565350, 59.857217],
          [18.557577, 59.860987],
          [18.547911, 59.856763],
          [18.541829, 59.858713],
          [18.527294, 59.849601],
          [18.494794, 59.862220],
          [18.477681, 59.855661],
          [18.489459, 59.845466],
          [18.476035, 59.847496],
          [18.469922, 59.844651]
        ]]
      }
    },
    {
      "type": "Feature",
      "id": "erken-processing-roi-5km",
      "properties": {
        "name": "Erken downstream processing ROI",
        "role": "processing-roi",
        "buffer_km": 5,
        "description": "Lake outline plus a 5 km metric buffer in UTM zone 34N for downstream processing; not used to crop downloads.",
        "source": "OpenStreetMap relation 2672093 (© OpenStreetMap contributors, ODbL)",
        "retrieved": "2026-08-20",
        "buffer_crs": "EPSG:32634",
        "simplification_m": 100
      },
      "geometry": {
        "type": "Polygon",
        "coordinates": [[
          [18.380777, 59.846266],
          [18.387707, 59.862617],
          [18.403175, 59.880870],
          [18.416679, 59.890127],
          [18.441885, 59.899805],
          [18.467983, 59.905036],
          [18.485461, 59.906862],
          [18.501492, 59.907034],
          [18.529484, 59.903615],
          [18.565793, 59.905823],
          [18.599236, 59.903018],
          [18.632592, 59.905436],
          [18.671397, 59.901437],
          [18.686010, 59.897767],
          [18.707896, 59.888108],
          [18.728671, 59.872008],
          [18.744331, 59.853465],
          [18.748406, 59.838674],
          [18.742062, 59.822804],
          [18.734747, 59.815559],
          [18.705921, 59.799524],
          [18.682812, 59.793321],
          [18.634187, 59.785320],
          [18.573640, 59.782354],
          [18.551402, 59.784711],
          [18.527097, 59.789972],
          [18.499603, 59.790005],
          [18.482666, 59.792323],
          [18.419056, 59.807599],
          [18.396026, 59.819527],
          [18.387032, 59.828094],
          [18.382031, 59.837016],
          [18.380777, 59.846266]
        ]]
      }
    }
  ]
}
